XRISM                   
1 57800U 23137A   24279.60735559  .00020812  00000+0  14903-2 0  9991
2 57800  31.0044  28.8069 0008792 220.9823 139.0153 15.03258718 59229
